[{"OBJECT_NAME":"STARLINK-31102","OBJECT_ID":"2024-002L","EPOCH":"2026-03-09T18:16:57.902592","MEAN_MOTION":15.30183866,"ECCENTRICITY":0.00012399,"INCLINATION":53.159,"RA_OF_ASC_NODE":229.7879,"ARG_OF_PERICENTER":98.4344,"MEAN_ANOMALY":261.6797,"EPHEMERIS_TYPE":0,"CLASSIFICATION_TYPE":"U","NORAD_CAT_ID":58715,"ELEMENT_SET_NO":999,"REV_AT_EPOCH":12202,"BSTAR":8.3086465e-5,"MEAN_MOTION_DOT":2.101e-5,"MEAN_MOTION_DDOT":0},{"OBJECT_NAME":"FENGYUN 1C DEB","OBJECT_ID":"1999-025CCU","EPOCH":"2026-03-09T04:16:51.250080","MEAN_MOTION":14.7380712,"ECCENTRICITY":0.02770831,"INCLINATION":98.1363,"RA_OF_ASC_NODE":145.1449,"ARG_OF_PERICENTER":173.2574,"MEAN_ANOMALY":217.8544,"EPHEMERIS_TYPE":0,"CLASSIFICATION_TYPE":"U","NORAD_CAT_ID":31686,"ELEMENT_SET_NO":999,"REV_AT_EPOCH":99091,"BSTAR":0.001175879,"MEAN_MOTION_DOT":0.00014291,"MEAN_MOTION_DDOT":0}]
